[{"OBJECT_NAME":"STARLINK-32843","OBJECT_ID":"2025-018J","EPOCH":"2026-03-09T22:19:18.526656","MEAN_MOTION":15.30173144,"ECCENTRICITY":8.818e-5,"INCLINATION":53.161,"RA_OF_ASC_NODE":308.5895,"ARG_OF_PERICENTER":124.1197,"MEAN_ANOMALY":235.9888,"EPHEMERIS_TYPE":0,"CLASSIFICATION_TYPE":"U","NORAD_CAT_ID":62814,"ELEMENT_SET_NO":999,"REV_AT_EPOCH":6320,"BSTAR":0.0013315326,"MEAN_MOTION_DOT":0.00039253,"MEAN_MOTION_DDOT":0},{"OBJECT_NAME":"SCS-01 B","OBJECT_ID":"2025-100B","EPOCH":"2026-03-09T21:49:11.508672","MEAN_MOTION":15.3317485,"ECCENTRICITY":0.00088698,"INCLINATION":97.3706,"RA_OF_ASC_NODE":145.9041,"ARG_OF_PERICENTER":288.6157,"MEAN_ANOMALY":71.4122,"EPHEMERIS_TYPE":0,"CLASSIFICATION_TYPE":"U","NORAD_CAT_ID":63983,"ELEMENT_SET_NO":999,"REV_AT_EPOCH":4567,"BSTAR":0.00098809397,"MEAN_MOTION_DOT":0.00031724,"MEAN_MOTION_DDOT":0}]
